[Satellite]
VERSION=1.1
NAME=FLOCK 3P-79
NICKNAME=FLOCK 3P-79
TLE1=1 41984U 17008AN  17186.29045857  .00001666  00000-0  74701-4 0  9997
TLE2=2 41984  97.4973 247.6533 0009601 129.1406 231.0685 15.22606309 21132
